TITAN 4B R/B            
1 26474U 00047B   25321.48332837  .00005471  00000+0  35117-3 0  9991
2 26474  67.9911 355.7753 0041116 174.1186 186.0455 15.08531807375983
ENVISAT                 
1 27386U 02009A   25321.46589347  .00000274  00000+0  10265-3 0  9995
2 27386  98.3557 272.8524 0001265  81.8731  28.9574 14.38986281243034
IDEFIX & ARIANE 42P R/B 
1 27422U 02021B   25321.41049345  .00000576  00000+0  23558-3 0  9998
2 27422  98.5746 256.4352 0012139 153.0631 207.1185 14.30924594227961
AQUA                    
1 27424U 02022A   25321.50901501  .00001970  00000+0  40517-3 0  9995
2 27424  98.3999 281.9847 0000671  60.5274  50.6611 14.61725210252349
MIDORI II (ADEOS-II)    
1 27597U 02056A   25321.44206054  .00000541  00000+0  23071-3 0  9996
2 27597  98.7595 274.2710 0001138  28.2831 331.8412 14.29181682194261
H-2A R/B                
1 27601U 02056E   25321.49537979  .00000509  00000+0  19297-3 0  9999
2 27601  98.3026 281.2629 0071087 135.2148 335.1371 14.33650141198035
CZ-4B R/B               
1 28059U 03049C   25321.49310201  .00000746  00000+0  18294-3 0  9996
2 28059  98.6769 307.1059 0047556 213.0030 146.8196 14.54877103170285
CZ-2C R/B               
1 28222U 04012C   25321.18126071  .00047037  00000+0  73911-3 0  9996
2 28222  97.7470  11.7338 0018731   7.9128 352.2416 15.53302019186751
SL-16 R/B               
1 28353U 04021B   25321.44754905  .00000384  00000+0  22471-3 0  9992
2 28353  70.9987 108.0391 0006388 226.0561 134.0035 14.14576667106967
CZ-4B R/B               
1 28415U 04035C   25321.33364497  .00012225  00000+0  45864-3 0  9995
2 28415  97.3646 352.0237 0034018   9.9886 350.2021 15.26817806162753
CZ-2C R/B               
1 28480U 04046B   25321.36488649  .00000318  00000+0  13256-3 0  9998
2 28480  98.1964 238.3234 0140488 126.7317 234.6862 14.26924956 92480
