CCSDS_OMM_VERS = 2.0
CREATION_DATE  = 
ORIGINATOR     = 

OBJECT_NAME    = TITAN 4B R/B
OBJECT_ID      = 2000-047B
CENTER_NAME    = EARTH
REF_FRAME      = TEME
TIME_SYSTEM    = UTC
MEAN_ELEMENT_THEORY = SGP/SGP4

EPOCH          = 2025-11-17T11:35:59.571168
MEAN_MOTION    = 15.08531807
ECCENTRICITY   = .0041116
INCLINATION    = 67.9911
RA_OF_ASC_NODE = 355.7753
ARG_OF_PERICENTER = 174.1186
MEAN_ANOMALY   = 186.0455

EPHEMERIS_TYPE = 0
CLASSIFICATION_TYPE = U
NORAD_CAT_ID   = 26474
ELEMENT_SET_NO = 999
REV_AT_EPOCH   = 37598
BSTAR          = .35117E-3
MEAN_MOTION_DOT = .5471E-4
MEAN_MOTION_DDOT = 0

CCSDS_OMM_VERS = 2.0
CREATION_DATE  = 
ORIGINATOR     = 

OBJECT_NAME    = ENVISAT
OBJECT_ID      = 2002-009A
CENTER_NAME    = EARTH
REF_FRAME      = TEME
TIME_SYSTEM    = UTC
MEAN_ELEMENT_THEORY = SGP/SGP4

EPOCH          = 2025-11-17T11:10:53.195808
MEAN_MOTION    = 14.38986281
ECCENTRICITY   = .0001265
INCLINATION    = 98.3557
RA_OF_ASC_NODE = 272.8524
ARG_OF_PERICENTER = 81.8731
MEAN_ANOMALY   = 28.9574

EPHEMERIS_TYPE = 0
CLASSIFICATION_TYPE = U
NORAD_CAT_ID   = 27386
ELEMENT_SET_NO = 999
REV_AT_EPOCH   = 24303
BSTAR          = .10265E-3
MEAN_MOTION_DOT = .274E-5
MEAN_MOTION_DDOT = 0

CCSDS_OMM_VERS = 2.0
CREATION_DATE  = 
ORIGINATOR     = 

OBJECT_NAME    = IDEFIX & ARIANE 42P R/B
OBJECT_ID      = 2002-021B
CENTER_NAME    = EARTH
REF_FRAME      = TEME
TIME_SYSTEM    = UTC
MEAN_ELEMENT_THEORY = SGP/SGP4

EPOCH          = 2025-11-17T09:51:06.634080
MEAN_MOTION    = 14.30924594
ECCENTRICITY   = .0012139
INCLINATION    = 98.5746
RA_OF_ASC_NODE = 256.4352
ARG_OF_PERICENTER = 153.0631
MEAN_ANOMALY   = 207.1185

EPHEMERIS_TYPE = 0
CLASSIFICATION_TYPE = U
NORAD_CAT_ID   = 27422
ELEMENT_SET_NO = 999
REV_AT_EPOCH   = 22796
BSTAR          = .23558E-3
MEAN_MOTION_DOT = .576E-5
MEAN_MOTION_DDOT = 0

CCSDS_OMM_VERS = 2.0
CREATION_DATE  = 
ORIGINATOR     = 

OBJECT_NAME    = AQUA
OBJECT_ID      = 2002-022A
CENTER_NAME    = EARTH
REF_FRAME      = TEME
TIME_SYSTEM    = UTC
MEAN_ELEMENT_THEORY = SGP/SGP4

EPOCH          = 2025-11-17T12:12:58.896864
MEAN_MOTION    = 14.61725210
ECCENTRICITY   = .0000671
INCLINATION    = 98.3999
RA_OF_ASC_NODE = 281.9847
ARG_OF_PERICENTER = 60.5274
MEAN_ANOMALY   = 50.6611

EPHEMERIS_TYPE = 0
CLASSIFICATION_TYPE = U
NORAD_CAT_ID   = 27424
ELEMENT_SET_NO = 999
REV_AT_EPOCH   = 25234
BSTAR          = .40517E-3
MEAN_MOTION_DOT = .197E-4
MEAN_MOTION_DDOT = 0

CCSDS_OMM_VERS = 2.0
CREATION_DATE  = 
ORIGINATOR     = 

OBJECT_NAME    = MIDORI II (ADEOS-II)
OBJECT_ID      = 2002-056A
CENTER_NAME    = EARTH
REF_FRAME      = TEME
TIME_SYSTEM    = UTC
MEAN_ELEMENT_THEORY = SGP/SGP4

EPOCH          = 2025-11-17T10:36:34.030656
MEAN_MOTION    = 14.29181682
ECCENTRICITY   = .0001138
INCLINATION    = 98.7595
RA_OF_ASC_NODE = 274.2710
ARG_OF_PERICENTER = 28.2831
MEAN_ANOMALY   = 331.8412

EPHEMERIS_TYPE = 0
CLASSIFICATION_TYPE = U
NORAD_CAT_ID   = 27597
ELEMENT_SET_NO = 999
REV_AT_EPOCH   = 19426
BSTAR          = .23071E-3
MEAN_MOTION_DOT = .541E-5
MEAN_MOTION_DDOT = 0

CCSDS_OMM_VERS = 2.0
CREATION_DATE  = 
ORIGINATOR     = 

OBJECT_NAME    = H-2A R/B
OBJECT_ID      = 2002-056E
CENTER_NAME    = EARTH
REF_FRAME      = TEME
TIME_SYSTEM    = UTC
MEAN_ELEMENT_THEORY = SGP/SGP4

EPOCH          = 2025-11-17T11:53:20.813856
MEAN_MOTION    = 14.33650141
ECCENTRICITY   = .0071087
INCLINATION    = 98.3026
RA_OF_ASC_NODE = 281.2629
ARG_OF_PERICENTER = 135.2148
MEAN_ANOMALY   = 335.1371

EPHEMERIS_TYPE = 0
CLASSIFICATION_TYPE = U
NORAD_CAT_ID   = 27601
ELEMENT_SET_NO = 999
REV_AT_EPOCH   = 19803
BSTAR          = .19297E-3
MEAN_MOTION_DOT = .509E-5
MEAN_MOTION_DDOT = 0

CCSDS_OMM_VERS = 2.0
CREATION_DATE  = 
ORIGINATOR     = 

OBJECT_NAME    = CZ-4B R/B
OBJECT_ID      = 2003-049C
CENTER_NAME    = EARTH
REF_FRAME      = TEME
TIME_SYSTEM    = UTC
MEAN_ELEMENT_THEORY = SGP/SGP4

EPOCH          = 2025-11-17T11:50:04.013664
MEAN_MOTION    = 14.54877103
ECCENTRICITY   = .0047556
INCLINATION    = 98.6769
RA_OF_ASC_NODE = 307.1059
ARG_OF_PERICENTER = 213.0030
MEAN_ANOMALY   = 146.8196

EPHEMERIS_TYPE = 0
CLASSIFICATION_TYPE = U
NORAD_CAT_ID   = 28059
ELEMENT_SET_NO = 999
REV_AT_EPOCH   = 17028
BSTAR          = .18294E-3
MEAN_MOTION_DOT = .746E-5
MEAN_MOTION_DDOT = 0

CCSDS_OMM_VERS = 2.0
CREATION_DATE  = 
ORIGINATOR     = 

OBJECT_NAME    = CZ-2C R/B
OBJECT_ID      = 2004-012C
CENTER_NAME    = EARTH
REF_FRAME      = TEME
TIME_SYSTEM    = UTC
MEAN_ELEMENT_THEORY = SGP/SGP4

EPOCH          = 2025-11-17T04:21:00.925344
MEAN_MOTION    = 15.53302018
ECCENTRICITY   = .0018731
INCLINATION    = 97.7470
RA_OF_ASC_NODE = 11.7338
ARG_OF_PERICENTER = 7.9128
MEAN_ANOMALY   = 352.2416

EPHEMERIS_TYPE = 0
CLASSIFICATION_TYPE = U
NORAD_CAT_ID   = 28222
ELEMENT_SET_NO = 999
REV_AT_EPOCH   = 18675
BSTAR          = .73911E-3
MEAN_MOTION_DOT = .47037E-3
MEAN_MOTION_DDOT = 0

CCSDS_OMM_VERS = 2.0
CREATION_DATE  = 
ORIGINATOR     = 

OBJECT_NAME    = SL-16 R/B
OBJECT_ID      = 2004-021B
CENTER_NAME    = EARTH
REF_FRAME      = TEME
TIME_SYSTEM    = UTC
MEAN_ELEMENT_THEORY = SGP/SGP4

EPOCH          = 2025-11-17T10:44:28.237920
MEAN_MOTION    = 14.14576667
ECCENTRICITY   = .0006388
INCLINATION    = 70.9987
RA_OF_ASC_NODE = 108.0391
ARG_OF_PERICENTER = 226.0561
MEAN_ANOMALY   = 134.0035

EPHEMERIS_TYPE = 0
CLASSIFICATION_TYPE = U
NORAD_CAT_ID   = 28353
ELEMENT_SET_NO = 999
REV_AT_EPOCH   = 10696
BSTAR          = .22471E-3
MEAN_MOTION_DOT = .384E-5
MEAN_MOTION_DDOT = 0

CCSDS_OMM_VERS = 2.0
CREATION_DATE  = 
ORIGINATOR     = 

OBJECT_NAME    = CZ-4B R/B
OBJECT_ID      = 2004-035C
CENTER_NAME    = EARTH
REF_FRAME      = TEME
TIME_SYSTEM    = UTC
MEAN_ELEMENT_THEORY = SGP/SGP4

EPOCH          = 2025-11-17T08:00:26.925408
MEAN_MOTION    = 15.26817806
ECCENTRICITY   = .0034018
INCLINATION    = 97.3646
RA_OF_ASC_NODE = 352.0237
ARG_OF_PERICENTER = 9.9886
MEAN_ANOMALY   = 350.2021

EPHEMERIS_TYPE = 0
CLASSIFICATION_TYPE = U
NORAD_CAT_ID   = 28415
ELEMENT_SET_NO = 999
REV_AT_EPOCH   = 16275
BSTAR          = .45864E-3
MEAN_MOTION_DOT = .12225E-3
MEAN_MOTION_DDOT = 0

CCSDS_OMM_VERS = 2.0
CREATION_DATE  = 
ORIGINATOR     = 

OBJECT_NAME    = CZ-2C R/B
OBJECT_ID      = 2004-046B
CENTER_NAME    = EARTH
REF_FRAME      = TEME
TIME_SYSTEM    = UTC
MEAN_ELEMENT_THEORY = SGP/SGP4

EPOCH          = 2025-11-17T08:45:26.192736
MEAN_MOTION    = 14.26924956
ECCENTRICITY   = .0140488
INCLINATION    = 98.1964
RA_OF_ASC_NODE = 238.3234
ARG_OF_PERICENTER = 126.7317
MEAN_ANOMALY   = 234.6862

EPHEMERIS_TYPE = 0
CLASSIFICATION_TYPE = U
NORAD_CAT_ID   = 28480
ELEMENT_SET_NO = 999
REV_AT_EPOCH   = 9248
BSTAR          = .13256E-3
MEAN_MOTION_DOT = .318E-5
MEAN_MOTION_DDOT = 0

